STARLINK-36515          
1 67430U 26005AC  26038.43805721  .00133308  00000+0  22360-2 0  9994
2 67430  43.0003  51.0984 0001492 271.5479  88.5210 15.50624576  4032
STARLINK-36443          
1 67431U 26005AD  26038.37261242  .00100858  00000+0  16980-2 0  9997
2 67431  42.9989  51.4664 0001725 265.5788  94.4875 15.50660015  4039
STARLINK-36460          
1 67432U 26005AE  26038.43668414  .00136125  00000+0  22822-2 0  9995
2 67432  43.0001  51.0858 0001391 255.7137 104.3568 15.50626277  4038
YAOGAN-50 01            
1 67433U 26006A   26038.44666336  .00000390  00000+0  18214-3 0  9994
2 67433 142.0320 308.7975 0000734 263.7777  96.2858 13.83241800  3460
CZ-6A R/B               
1 67434U 26006B   26038.36957131  .00002056  00000+0  25028-3 0  9994
2 67434 142.0436 323.8996 0203607 263.4627  94.2900 14.62310741  3639
HULIANWANG DIGUI-137    
1 67435U 26007A   26038.40618584  .00000022  00000+0  16965-3 0  9998
2 67435  50.0068 196.4634 0000471 353.1092   6.9794 13.75083778  3449
HULIANWANG DIGUI-138    
1 67436U 26007B   26038.41201497  .00000019  00000+0  16645-3 0  9992
2 67436  50.0043 196.4872 0000210  90.7374 269.3542 13.74706265  3443
HULIANWANG DIGUI-139    
1 67437U 26007C   26037.82732797  .00000050  00000+0  19833-3 0  9996
2 67437  50.0031 198.7083 0000946 213.8812 146.2020 13.74984577  3360
HULIANWANG DIGUI-140    
1 67438U 26007D   26038.41532703  .00000043  00000+0  19304-3 0  9993
2 67438  50.0038 196.5026 0000332 162.8864 197.2039 13.74511014  3447
HULIANWANG DIGUI-141    
1 67439U 26007E   26038.40248508  .00000026  00000+0  17277-3 0  9998
2 67439  50.0034 196.4337 0000307 172.7109 187.3788 13.75280225  3441
HULIANWANG DIGUI-142    
1 67440U 26007F   26037.89058726 -.00000133  00000+0  82559-5 0  9990
2 67440  50.0086 198.4087 0002669 359.4384   0.6505 13.75583257  3373
HULIANWANG DIGUI-143    
1 67441U 26007G   26038.32315028  .00000025  00000+0  17090-3 0  9996
2 67441  50.0086 196.6966 0000687 190.2242 169.8637 13.75632050  3439
