CCSDS_OMM_VERS = 2.0
CREATION_DATE  = 
ORIGINATOR     = 

OBJECT_NAME    = STARLINK-36515
OBJECT_ID      = 2026-005AC
CENTER_NAME    = EARTH
REF_FRAME      = TEME
TIME_SYSTEM    = UTC
MEAN_ELEMENT_THEORY = SGP/SGP4

EPOCH          = 2026-02-07T10:30:48.142944
MEAN_MOTION    = 15.50624576
ECCENTRICITY   = .0001492
INCLINATION    = 43.0003
RA_OF_ASC_NODE = 51.0984
ARG_OF_PERICENTER = 271.5479
MEAN_ANOMALY   = 88.5210

EPHEMERIS_TYPE = 0
CLASSIFICATION_TYPE = U
NORAD_CAT_ID   = 67430
ELEMENT_SET_NO = 999
REV_AT_EPOCH   = 403
BSTAR          = .2236E-2
MEAN_MOTION_DOT = .133308E-2
MEAN_MOTION_DDOT = 0

CCSDS_OMM_VERS = 2.0
CREATION_DATE  = 
ORIGINATOR     = 

OBJECT_NAME    = STARLINK-36443
OBJECT_ID      = 2026-005AD
CENTER_NAME    = EARTH
REF_FRAME      = TEME
TIME_SYSTEM    = UTC
MEAN_ELEMENT_THEORY = SGP/SGP4

EPOCH          = 2026-02-07T08:56:33.713088
MEAN_MOTION    = 15.50660015
ECCENTRICITY   = .0001725
INCLINATION    = 42.9989
RA_OF_ASC_NODE = 51.4664
ARG_OF_PERICENTER = 265.5788
MEAN_ANOMALY   = 94.4875

EPHEMERIS_TYPE = 0
CLASSIFICATION_TYPE = U
NORAD_CAT_ID   = 67431
ELEMENT_SET_NO = 999
REV_AT_EPOCH   = 403
BSTAR          = .1698E-2
MEAN_MOTION_DOT = .100858E-2
MEAN_MOTION_DDOT = 0

CCSDS_OMM_VERS = 2.0
CREATION_DATE  = 
ORIGINATOR     = 

OBJECT_NAME    = STARLINK-36460
OBJECT_ID      = 2026-005AE
CENTER_NAME    = EARTH
REF_FRAME      = TEME
TIME_SYSTEM    = UTC
MEAN_ELEMENT_THEORY = SGP/SGP4

EPOCH          = 2026-02-07T10:28:49.509696
MEAN_MOTION    = 15.50626277
ECCENTRICITY   = .0001391
INCLINATION    = 43.0001
RA_OF_ASC_NODE = 51.0858
ARG_OF_PERICENTER = 255.7137
MEAN_ANOMALY   = 104.3568

EPHEMERIS_TYPE = 0
CLASSIFICATION_TYPE = U
NORAD_CAT_ID   = 67432
ELEMENT_SET_NO = 999
REV_AT_EPOCH   = 403
BSTAR          = .22822E-2
MEAN_MOTION_DOT = .136125E-2
MEAN_MOTION_DDOT = 0

CCSDS_OMM_VERS = 2.0
CREATION_DATE  = 
ORIGINATOR     = 

OBJECT_NAME    = YAOGAN-50 01
OBJECT_ID      = 2026-006A
CENTER_NAME    = EARTH
REF_FRAME      = TEME
TIME_SYSTEM    = UTC
MEAN_ELEMENT_THEORY = SGP/SGP4

EPOCH          = 2026-02-07T10:43:11.714304
MEAN_MOTION    = 13.83241800
ECCENTRICITY   = .0000734
INCLINATION    = 142.0320
RA_OF_ASC_NODE = 308.7975
ARG_OF_PERICENTER = 263.7777
MEAN_ANOMALY   = 96.2858

EPHEMERIS_TYPE = 0
CLASSIFICATION_TYPE = U
NORAD_CAT_ID   = 67433
ELEMENT_SET_NO = 999
REV_AT_EPOCH   = 346
BSTAR          = .18214E-3
MEAN_MOTION_DOT = .39E-5
MEAN_MOTION_DDOT = 0

CCSDS_OMM_VERS = 2.0
CREATION_DATE  = 
ORIGINATOR     = 

OBJECT_NAME    = CZ-6A R/B
OBJECT_ID      = 2026-006B
CENTER_NAME    = EARTH
REF_FRAME      = TEME
TIME_SYSTEM    = UTC
MEAN_ELEMENT_THEORY = SGP/SGP4

EPOCH          = 2026-02-07T08:52:10.961184
MEAN_MOTION    = 14.62310741
ECCENTRICITY   = .0203607
INCLINATION    = 142.0436
RA_OF_ASC_NODE = 323.8996
ARG_OF_PERICENTER = 263.4627
MEAN_ANOMALY   = 94.2900

EPHEMERIS_TYPE = 0
CLASSIFICATION_TYPE = U
NORAD_CAT_ID   = 67434
ELEMENT_SET_NO = 999
REV_AT_EPOCH   = 363
BSTAR          = .25028E-3
MEAN_MOTION_DOT = .2056E-4
MEAN_MOTION_DDOT = 0

CCSDS_OMM_VERS = 2.0
CREATION_DATE  = 
ORIGINATOR     = 

OBJECT_NAME    = HULIANWANG DIGUI-137
OBJECT_ID      = 2026-007A
CENTER_NAME    = EARTH
REF_FRAME      = TEME
TIME_SYSTEM    = UTC
MEAN_ELEMENT_THEORY = SGP/SGP4

EPOCH          = 2026-02-07T09:44:54.456576
MEAN_MOTION    = 13.75083778
ECCENTRICITY   = .0000471
INCLINATION    = 50.0068
RA_OF_ASC_NODE = 196.4634
ARG_OF_PERICENTER = 353.1092
MEAN_ANOMALY   = 6.9794

EPHEMERIS_TYPE = 0
CLASSIFICATION_TYPE = U
NORAD_CAT_ID   = 67435
ELEMENT_SET_NO = 999
REV_AT_EPOCH   = 344
BSTAR          = .16965E-3
MEAN_MOTION_DOT = .22E-6
MEAN_MOTION_DDOT = 0

CCSDS_OMM_VERS = 2.0
CREATION_DATE  = 
ORIGINATOR     = 

OBJECT_NAME    = HULIANWANG DIGUI-138
OBJECT_ID      = 2026-007B
CENTER_NAME    = EARTH
REF_FRAME      = TEME
TIME_SYSTEM    = UTC
MEAN_ELEMENT_THEORY = SGP/SGP4

EPOCH          = 2026-02-07T09:53:18.093408
MEAN_MOTION    = 13.74706265
ECCENTRICITY   = .000021
INCLINATION    = 50.0043
RA_OF_ASC_NODE = 196.4872
ARG_OF_PERICENTER = 90.7374
MEAN_ANOMALY   = 269.3542

EPHEMERIS_TYPE = 0
CLASSIFICATION_TYPE = U
NORAD_CAT_ID   = 67436
ELEMENT_SET_NO = 999
REV_AT_EPOCH   = 344
BSTAR          = .16645E-3
MEAN_MOTION_DOT = .19E-6
MEAN_MOTION_DDOT = 0

CCSDS_OMM_VERS = 2.0
CREATION_DATE  = 
ORIGINATOR     = 

OBJECT_NAME    = HULIANWANG DIGUI-139
OBJECT_ID      = 2026-007C
CENTER_NAME    = EARTH
REF_FRAME      = TEME
TIME_SYSTEM    = UTC
MEAN_ELEMENT_THEORY = SGP/SGP4

EPOCH          = 2026-02-06T19:51:21.136608
MEAN_MOTION    = 13.74984577
ECCENTRICITY   = .00009462
INCLINATION    = 50.0031
RA_OF_ASC_NODE = 198.7083
ARG_OF_PERICENTER = 213.8812
MEAN_ANOMALY   = 146.2020

EPHEMERIS_TYPE = 0
CLASSIFICATION_TYPE = U
NORAD_CAT_ID   = 67437
ELEMENT_SET_NO = 999
REV_AT_EPOCH   = 336
BSTAR          = .19832882E-3
MEAN_MOTION_DOT = .5E-6
MEAN_MOTION_DDOT = 0

CCSDS_OMM_VERS = 2.0
CREATION_DATE  = 
ORIGINATOR     = 

OBJECT_NAME    = HULIANWANG DIGUI-140
OBJECT_ID      = 2026-007D
CENTER_NAME    = EARTH
REF_FRAME      = TEME
TIME_SYSTEM    = UTC
MEAN_ELEMENT_THEORY = SGP/SGP4

EPOCH          = 2026-02-07T09:58:04.255392
MEAN_MOTION    = 13.74511014
ECCENTRICITY   = .0000332
INCLINATION    = 50.0038
RA_OF_ASC_NODE = 196.5026
ARG_OF_PERICENTER = 162.8864
MEAN_ANOMALY   = 197.2039

EPHEMERIS_TYPE = 0
CLASSIFICATION_TYPE = U
NORAD_CAT_ID   = 67438
ELEMENT_SET_NO = 999
REV_AT_EPOCH   = 344
BSTAR          = .19304E-3
MEAN_MOTION_DOT = .43E-6
MEAN_MOTION_DDOT = 0

CCSDS_OMM_VERS = 2.0
CREATION_DATE  = 
ORIGINATOR     = 

OBJECT_NAME    = HULIANWANG DIGUI-141
OBJECT_ID      = 2026-007E
CENTER_NAME    = EARTH
REF_FRAME      = TEME
TIME_SYSTEM    = UTC
MEAN_ELEMENT_THEORY = SGP/SGP4

EPOCH          = 2026-02-07T09:39:34.710912
MEAN_MOTION    = 13.75280225
ECCENTRICITY   = .0000307
INCLINATION    = 50.0034
RA_OF_ASC_NODE = 196.4337
ARG_OF_PERICENTER = 172.7109
MEAN_ANOMALY   = 187.3788

EPHEMERIS_TYPE = 0
CLASSIFICATION_TYPE = U
NORAD_CAT_ID   = 67439
ELEMENT_SET_NO = 999
REV_AT_EPOCH   = 344
BSTAR          = .17277E-3
MEAN_MOTION_DOT = .26E-6
MEAN_MOTION_DDOT = 0

CCSDS_OMM_VERS = 2.0
CREATION_DATE  = 
ORIGINATOR     = 

OBJECT_NAME    = HULIANWANG DIGUI-142
OBJECT_ID      = 2026-007F
CENTER_NAME    = EARTH
REF_FRAME      = TEME
TIME_SYSTEM    = UTC
MEAN_ELEMENT_THEORY = SGP/SGP4

EPOCH          = 2026-02-06T21:22:26.739264
MEAN_MOTION    = 13.75583257
ECCENTRICITY   = .00026698
INCLINATION    = 50.0086
RA_OF_ASC_NODE = 198.4087
ARG_OF_PERICENTER = 359.4384
MEAN_ANOMALY   = 0.6505

EPHEMERIS_TYPE = 0
CLASSIFICATION_TYPE = U
NORAD_CAT_ID   = 67440
ELEMENT_SET_NO = 999
REV_AT_EPOCH   = 337
BSTAR          = .8255868E-5
MEAN_MOTION_DOT = -.133E-5
MEAN_MOTION_DDOT = 0

CCSDS_OMM_VERS = 2.0
CREATION_DATE  = 
ORIGINATOR     = 

OBJECT_NAME    = HULIANWANG DIGUI-143
OBJECT_ID      = 2026-007G
CENTER_NAME    = EARTH
REF_FRAME      = TEME
TIME_SYSTEM    = UTC
MEAN_ELEMENT_THEORY = SGP/SGP4

EPOCH          = 2026-02-07T07:45:20.184192
MEAN_MOTION    = 13.75632050
ECCENTRICITY   = .0000687
INCLINATION    = 50.0086
RA_OF_ASC_NODE = 196.6966
ARG_OF_PERICENTER = 190.2242
MEAN_ANOMALY   = 169.8637

EPHEMERIS_TYPE = 0
CLASSIFICATION_TYPE = U
NORAD_CAT_ID   = 67441
ELEMENT_SET_NO = 999
REV_AT_EPOCH   = 343
BSTAR          = .1709E-3
MEAN_MOTION_DOT = .25E-6
MEAN_MOTION_DDOT = 0

